NORAD_CAT_ID,OBJECT_NAME,OBJECT_TYPE,EPOCH,MEAN_MOTION,ECCENTRICITY,INCLINATION,RA_OF_ASC_NODE,ARG_OF_PERICENTER,MEAN_ANOMALY,BSTAR,MEAN_MOTION_DOT,MEAN_MOTION_DDOT,TLE_LINE0,TLE_LINE1,TLE_LINE2,SEMIMAJOR_AXIS,PERIOD,APOGEE,PERIGEE,DECAYED
52834.0,STARLINK-4108,PAYLOAD,2022-08-20 14:00:01,15.08816404,0.0001424,53.2155,97.0568,71.612,296.8032,0.0027307,0.00043411,0.0,0 STARLINK-4108,1 52834U 22062E   22232.58334491  .00043411  00000-0  27307-2 0  9996,2 52834  53.2155  97.0568 0001424  71.6120 296.8032 15.08816404  1309,6917.953,95.439,540.803,538.832,0.0
52834.0,STARLINK-4108,PAYLOAD,2022-08-20 22:00:00,15.08839098,0.0001543,53.2155,95.5622,64.1156,315.8837,-0.0003956,-6.578e-05,0.0,0 STARLINK-4108,1 52834U 22062E   22232.91667824 -.00006578  00000-0 -39560-3 0  9992,2 52834  53.2155  95.5622 0001543  64.1156 315.8837 15.08839098 10018,6917.8830000000025,95.438,540.816,538.681,0.0
52834.0,STARLINK-4108,PAYLOAD,2022-08-21 14:00:01,15.08846651,0.0001476999999999,53.2155,92.5678,73.861,329.326,-0.00077909,-0.00012668,0.0,0 STARLINK-4108,1 52834U 22062E   22233.58334491 -.00012668  00000-0 -77909-3 0  9993,2 52834  53.2155  92.5678 0001477  73.8610 329.3260 15.08846651  1309,6917.86,95.437,540.747,538.703,0.0
52834.0,STARLINK-4108,PAYLOAD,2022-08-21 22:00:00,15.08821767,0.0001648,53.2154,91.0732,67.6869,347.0995,-0.00031558,-5.304e-05,0.0,0 STARLINK-4108,1 52834U 22062E   22233.91667824 -.00005304  00000-0 -31558-3 0  9998,2 52834  53.2154  91.0732 0001648  67.6869 347.0995 15.08821767  1303,6917.936,95.439,540.941,538.661,0.0
52834.0,STARLINK-4108,PAYLOAD,2022-08-22 06:00:00,15.08841582,0.0001575,53.2151,89.5761,68.9026,357.4522,-0.0019059,-0.00030494,0.0,0 STARLINK-4108,1 52834U 22062E   22234.25001157 -.00030494  00000-0 -19059-2 0  9996,2 52834  53.2151  89.5761 0001575  68.9026 357.4522 15.08841582 10210,6917.876,95.437,540.83,538.651,0.0
52834.0,STARLINK-4108,PAYLOAD,2022-08-22 12:00:00,15.08805371,0.0001521999999999,53.215,88.4529,76.2033,268.8482,0.00311,0.00049509,0.0,0 STARLINK-4108,1 52834U 22062E   22234.50001157  .00049509  00000-0  31100-2 0  9990,2 52834  53.2150  88.4529 0001522  76.2033 268.8482 15.08805371  1307,6917.986,95.44,540.904,538.798,0.0
52834.0,STARLINK-4108,PAYLOAD,2022-08-22 22:00:00,15.08829895,0.0001652,53.215,86.5844,69.5741,19.9513,-4.0329e-06,-3.52e-06,0.0,0 STARLINK-4108,1 52834U 22062E   22234.91667824 -.00000352  00000-0 -40329-5 0  9995,2 52834  53.2150  86.5844 0001652  69.5741  19.9513 15.08829895 10319,6917.911,95.438,540.919,538.633,0.0
52834.0,STARLINK-4108,PAYLOAD,2022-08-23 14:00:01,15.08835835,0.0001602,53.2147,83.5898,78.3083,34.3886,0.00099335,0.00015555,0.0,0 STARLINK-4108,1 52834U 22062E   22235.58334491  .00015555  00000-0  99335-3 0  9998,2 52834  53.2147  83.5898 0001602  78.3083  34.3886 15.08835835  1307,6917.893,95.438,540.866,538.65,0.0
52834.0,STARLINK-4108,PAYLOAD,2022-08-23 22:00:01,15.08833523,0.0001676999999999,53.2146,82.0952,70.3386,54.0204,0.00046025,7.043e-05,0.0,0 STARLINK-4108,1 52834U 22062E   22235.91668981  .00007043  00000-0  46025-3 0  9990,2 52834  53.2146  82.0952 0001677  70.3386  54.0204 15.08833523  1306,6917.9,95.438,540.925,538.605,0.0
52834.0,STARLINK-4108,PAYLOAD,2022-08-24 06:00:00,15.08856958,0.0001607,53.2143,80.5977,72.3737,63.5109,-0.0019042,-0.0003048,0.0,0 STARLINK-4108,1 52834U 22062E   22236.25001157 -.00030480  00000-0 -19042-2 0  9995,2 52834  53.2143  80.5977 0001607  72.3737  63.5109 15.08856958 10517,6917.829000000002,95.436,540.805,538.582,0.0
52834.0,STARLINK-4108,PAYLOAD,2022-08-24 14:00:01,15.08847514,0.000165,53.2145,79.1005,78.4304,69.0538,0.00058487,9.034e-05,0.0,0 STARLINK-4108,1 52834U 22062E   22236.58334491  .00009034  00000-0  58487-3 0  9997,2 52834  53.2145  79.1005 0001650  78.4304  69.0538 15.08847514  1302,6917.857,95.437,540.864,538.581,0.0
52834.0,STARLINK-4108,PAYLOAD,2022-08-24 22:00:00,15.0883821,0.0001721999999999,53.2144,77.6058,69.7992,89.2967,0.0010880999999999,0.00017071,0.0,0 STARLINK-4108,1 52834U 22062E   22236.91667824  .00017071  00000-0  10881-2 0  9998,2 52834  53.2144  77.6058 0001722  69.7992  89.2967 15.08838210 10615,6917.886,95.438,540.942,538.56,0.0
52834.0,STARLINK-4108,PAYLOAD,2022-08-25 14:00:01,15.08832531,0.0001578,53.215,74.6088,76.9128,105.3725,0.00013414,1.847e-05,0.0,0 STARLINK-4108,1 52834U 22062E   22237.58334491  .00001847  00000-0  13414-3 0  9993,2 52834  53.2150  74.6088 0001578  76.9128 105.3725 15.08832531  1300,6917.903,95.438,540.86,538.677,0.0
52834.0,STARLINK-4108,PAYLOAD,2022-08-25 22:00:00,15.08814292,0.0001654,53.2146,73.1162,67.5578,126.3152,0.0016111,0.00025428,0.0,0 STARLINK-4108,1 52834U 22062E   22237.91667824  .00025428  00000-0  16111-2 0  9996,2 52834  53.2146  73.1162 0001654  67.5578 126.3152 15.08814292  1303,6917.959,95.439,540.9680000000002,538.68,0.0
52834.0,STARLINK-4108,PAYLOAD,2022-08-26 14:00:01,15.08844668,0.0001606,53.2149,70.1214,76.5178,140.5789,-2.1656e-05,-6.33e-06,0.0,0 STARLINK-4108,1 52834U 22062E   22238.58335648 -.00000633  00000-0 -21656-4 0  9991,2 52834  53.2149  70.1214 0001606  76.5178 140.5789 15.08844668 10869,6917.866,95.437,540.842,538.62,0.0
52834.0,STARLINK-4108,PAYLOAD,2022-08-26 22:00:00,15.08822306,0.0001695,53.2149,68.6266,67.4609,161.1761,0.002041,0.00032328,0.0,0 STARLINK-4108,1 52834U 22062E   22238.91667824  .00032328  00000-0  20410-2 0  9991,2 52834  53.2149  68.6266 0001695  67.4609 161.1761 15.08822306  1307,6917.934,95.439,540.972,538.627,0.0
52834.0,STARLINK-4108,PAYLOAD,2022-08-27 14:00:01,15.08858475,0.0001610999999999,53.2153,65.6319,76.9503,174.87400000000005,-0.00033494,-5.617e-05,0.0,0 STARLINK-4108,1 52834U 22062E   22239.58334491 -.00005617  00000-0 -33494-3 0  9996,2 52834  53.2153  65.6319 0001611  76.9503 174.8740 15.08858475  1308,6917.824000000001,95.436,540.803,538.5740000000002,0.0
52834.0,STARLINK-4108,PAYLOAD,2022-08-27 22:00:00,15.08833985,0.0001673,53.2152,64.1369,68.0607,195.3835,0.0022999,0.00036499,0.0,0 STARLINK-4108,1 52834U 22062E   22239.91667824  .00036499  00000-0  22999-2 0  9999,2 52834  53.2152  64.1369 0001673  68.0607 195.3835 15.08833985 11078,6917.899,95.438,540.9209999999998,538.606,0.0
52834.0,STARLINK-4108,PAYLOAD,2022-08-28 14:00:01,15.08847744,0.0001455,53.2155,61.1423,76.9174,209.7347,-0.0006229,-0.0001019,0.0,0 STARLINK-4108,1 52834U 22062E   22240.58334491 -.00010190  00000-0 -62290-3 0  9996,2 52834  53.2155  61.1423 0001455  76.9174 209.7347 15.08847744 11171,6917.857,95.437,540.7280000000002,538.715,0.0
52834.0,STARLINK-4108,PAYLOAD,2022-08-28 22:00:00,15.08818216,0.0001528,53.2153,59.6473,67.6542,230.6011,0.0025269,0.00040133,0.0,0 STARLINK-4108,1 52834U 22062E   22240.91667824  .00040133  00000-0  25269-2 0  9994,2 52834  53.2153  59.6473 0001528  67.6542 230.6011 15.08818216  1300,6917.946999999999,95.439,540.869,538.755,0.0
52834.0,STARLINK-4108,PAYLOAD,2022-08-29 14:00:01,15.08841198,0.0001330999999999,53.2155,56.6529,77.5036,243.9317,-0.0020074,-0.00032095,0.0,0 STARLINK-4108,1 52834U 22062E   22241.58334491 -.00032095  00000-0 -20074-2 0  9998,2 52834  53.2155  56.6529 0001331  77.5036 243.9317 15.08841198  1302,6917.877,95.437,540.6619999999998,538.821,0.0
52834.0,STARLINK-4108,PAYLOAD,2022-08-29 16:00:00,15.08836548,0.0001335,53.2154,56.2794,73.3345,341.0004,-0.0018512,-0.00029626,0.0,0 STARLINK-4108,1 52834U 22062E   22241.66667824 -.00029626  00000-0 -18512-2 0  9996,2 52834  53.2154  56.2794 0001335  73.3345 341.0004 15.08836548 11332,6917.891,95.438,540.679,538.832,0.0
52834.0,STARLINK-4108,PAYLOAD,2022-08-29 22:00:00,15.088022,0.0001379,53.2152,55.1579,67.2847,265.7407,0.0026708,0.0004243,0.0,0 STARLINK-4108,1 52834U 22062E   22241.91667824  .00042430  00000-0  26708-2 0  9996,2 52834  53.2152  55.1579 0001379  67.2847 265.7407 15.08802200  1309,6917.996,95.44,540.815,538.9069999999998,0.0
52834.0,STARLINK-4108,PAYLOAD,2022-08-30 06:00:00,15.08821012,0.0001267,53.2152,53.6599,75.6806,268.9188,0.00069968,0.00010859,0.0,0 STARLINK-4108,1 52834U 22062E   22242.25001157  .00010859  00000-0  69968-3 0  9991,2 52834  53.2152  53.6599 0001267  75.6806 268.9188 15.08821012 11425,6917.938,95.439,540.68,538.927,0.0
52834.0,STARLINK-4108,PAYLOAD,2022-08-30 14:00:01,15.08846943,0.0001304,53.2154,52.1639,77.5036,278.663,-0.0014328,-0.00023023,0.0,0 STARLINK-4108,1 52834U 22062E   22242.58334491 -.00023023  00000-0 -14328-2 0  9995,2 52834  53.2154  52.1639 0001304  77.5036 278.6630 15.08846943  1300,6917.859,95.437,540.626,538.822,0.0
52834.0,STARLINK-4108,PAYLOAD,2022-08-30 22:00:00,15.08812961,0.0001355,53.2151,50.6688,67.7678,299.9968,0.0027369,0.00043507,0.0,0 STARLINK-4108,1 52834U 22062E   22242.91667824  .00043507  00000-0  27369-2 0  9997,2 52834  53.2151  50.6688 0001355  67.7678 299.9968 15.08812961  1306,6917.9630000000025,95.439,540.765,538.891,0.0
52834.0,STARLINK-4108,PAYLOAD,2022-08-31 14:00:01,15.0886025,0.0001325,53.2153,47.6748,76.1314,314.8057,-0.0016251999999999,-0.00026074,0.0,0 STARLINK-4108,1 52834U 22062E   22243.58334491 -.00026074  00000-0 -16252-2 0  9993,2 52834  53.2153  47.6748 0001325  76.1314 314.8057 15.08860250 11625,6917.818,95.436,540.6,538.7669999999998,0.0
52834.0,STARLINK-4108,PAYLOAD,2022-08-31 22:00:00,15.08834991,0.0001385999999999,53.2152,46.1796,66.4671,336.0826,0.001454,0.00022925,0.0,0 STARLINK-4108,1 52834U 22062E   22243.91667824  .00022925  00000-0  14540-2 0  9996,2 52834  53.2152  46.1796 0001386  66.4671 336.0826 15.08834991  1303,6917.896,95.438,540.72,538.802,0.0
52834.0,STARLINK-4108,PAYLOAD,2022-09-01 14:00:01,15.08845941,0.0001484,53.2155,43.1857,75.2522,350.5403,-0.0017199,-0.0002756,0.0,0 STARLINK-4108,1 52834U 22062E   22244.58335648 -.00027560  00000-0 -17199-2 0  9991,2 52834  53.2155  43.1857 0001484  75.2522 350.5403 15.08845941  1302,6917.861999999999,95.437,540.754,538.701,0.0
